[{"OBJECT_NAME":"STARLINK-2566","OBJECT_ID":"2021-036M","EPOCH":"2026-03-09T23:46:14.442816","MEAN_MOTION":15.30187249,"ECCENTRICITY":0.00017424,"INCLINATION":53.1607,"RA_OF_ASC_NODE":76.432,"ARG_OF_PERICENTER":102.9945,"MEAN_ANOMALY":257.125,"EPHEMERIS_TYPE":0,"CLASSIFICATION_TYPE":"U","NORAD_CAT_ID":48287,"ELEMENT_SET_NO":999,"REV_AT_EPOCH":26841,"BSTAR":-2.49611e-7,"MEAN_MOTION_DOT":-3.67e-6,"MEAN_MOTION_DDOT":0},{"OBJECT_NAME":"PUCP-SAT 1","OBJECT_ID":"2013-066AC","EPOCH":"2026-03-09T22:02:13.763904","MEAN_MOTION":15.29426022,"ECCENTRICITY":0.00136836,"INCLINATION":97.5787,"RA_OF_ASC_NODE":61.0032,"ARG_OF_PERICENTER":300.1183,"MEAN_ANOMALY":59.87,"EPHEMERIS_TYPE":0,"CLASSIFICATION_TYPE":"U","NORAD_CAT_ID":39442,"ELEMENT_SET_NO":999,"REV_AT_EPOCH":66907,"BSTAR":0.00088755185,"MEAN_MOTION_DOT":0.00025373,"MEAN_MOTION_DDOT":0}]
